{"type":"FeatureCollection","crs":{"type":"name","properties":{"name":"EPSG:4326"}},"features":[{"type":"Feature","geometry":{"type":"MultiPolygon","coordinates":[[[[-76.18226,36.92401],[-76.19002,36.92584],[-76.19122,36.92662],[-76.19102,36.92793],[-76.19154,36.92923],[-76.19238,36.93004],[-76.19341,36.93056],[-76.18498,36.92934],[-76.17945,36.92923],[-76.17945,36.92904],[-76.17892,36.92902],[-76.17847,36.92764],[-76.18064,36.92763],[-76.18081,36.92632],[-76.18027,36.92407],[-76.18181,36.92424],[-76.18226,36.92401]]],[[[-76.28182,36.87709],[-76.28183,36.8771],[-76.28182,36.8771],[-76.28182,36.87709]]],[[[-76.20429,36.87442],[-76.20429,36.87443],[-76.20427,36.87443],[-76.20429,36.87442]]],[[[-76.2852,36.86747],[-76.28862,36.86843],[-76.29187,36.86899],[-76.29635,36.87104],[-76.29928,36.87202],[-76.30052,36.87295],[-76.30166,36.87324],[-76.30189,36.87634],[-76.28364,36.87104],[-76.2852,36.86747]]],[[[-76.26994,36.86662],[-76.26997,36.86663],[-76.26993,36.86663],[-76.26994,36.86662]]],[[[-76.25929,36.85978],[-76.25933,36.85979],[-76.25935,36.8598],[-76.25929,36.85978]]],[[[-76.24048,36.84588],[-76.24181,36.84592],[-76.24153,36.84799],[-76.24419,36.84804],[-76.24569,36.84708],[-76.2487,36.84978],[-76.24968,36.8488],[-76.25103,36.84818],[-76.25149,36.84873],[-76.25215,36.84888],[-76.25419,36.84762],[-76.2559,36.84759],[-76.25681,36.84806],[-76.25735,36.84877],[-76.25747,36.85052],[-76.2609,36.85052],[-76.26093,36.84741],[-76.26113,36.84724],[-76.26452,36.84727],[-76.26441,36.8538],[-76.27225,36.85615],[-76.26936,36.86117],[-76.25929,36.85977],[-76.25865,36.85756],[-76.25865,36.85644],[-76.25777,36.85651],[-76.2577,36.85522],[-76.25529,36.85638],[-76.24755,36.86152],[-76.24416,36.86307],[-76.24364,36.86215],[-76.24324,36.86047],[-76.2422,36.85866],[-76.23876,36.85988],[-76.23682,36.85725],[-76.236,36.85512],[-76.23962,36.85443],[-76.23568,36.84792],[-76.23617,36.84778],[-76.24,36.8479],[-76.24048,36.84588]]],[[[-76.26766,36.84499],[-76.26772,36.845],[-76.26767,36.845],[-76.26766,36.84499]]],[[[-76.21013,36.84372],[-76.20996,36.8489],[-76.21182,36.84902],[-76.21373,36.84857],[-76.2143,36.84979],[-76.21488,36.85037],[-76.2159,36.85075],[-76.21716,36.85071],[-76.21717,36.85595],[-76.21909,36.85601],[-76.21916,36.8551],[-76.21956,36.85435],[-76.221,36.85308],[-76.22296,36.85059],[-76.22463,36.85134],[-76.22233,36.85475],[-76.2259,36.85482],[-76.22558,36.8581],[-76.22256,36.85804],[-76.2249,36.86052],[-76.22294,36.86216],[-76.22344,36.86236],[-76.22269,36.8633],[-76.22227,36.86534],[-76.22148,36.86601],[-76.22088,36.86621],[-76.22087,36.86673],[-76.22218,36.86632],[-76.22462,36.86398],[-76.2272,36.86425],[-76.22902,36.86477],[-76.22884,36.86635],[-76.2295,36.8678],[-76.23147,36.86702],[-76.23486,36.86674],[-76.23689,36.86626],[-76.2423,36.86372],[-76.24416,36.86307],[-76.24985,36.86806],[-76.24429,36.87073],[-76.24523,36.87138],[-76.23433,36.87264],[-76.23254,36.87335],[-76.23333,36.87814],[-76.22869,36.87893],[-76.22987,36.88246],[-76.23392,36.88161],[-76.23436,36.88339],[-76.23839,36.88915],[-76.23911,36.89403],[-76.23983,36.89518],[-76.24381,36.89454],[-76.24412,36.89397],[-76.24519,36.89372],[-76.24647,36.89525],[-76.24767,36.89893],[-76.24959,36.89843],[-76.25039,36.89844],[-76.25043,36.90234],[-76.25199,36.90231],[-76.25649,36.90159],[-76.25643,36.90698],[-76.26131,36.91074],[-76.26535,36.91558],[-76.26866,36.91239],[-76.26697,36.91187],[-76.26767,36.9103],[-76.27372,36.91199],[-76.27335,36.91286],[-76.27354,36.91293],[-76.27362,36.91274],[-76.28826,36.91409],[-76.28829,36.9153],[-76.2964,36.91533],[-76.29647,36.91609],[-76.30242,36.9158],[-76.3074,36.91607],[-76.30806,36.91579],[-76.31035,36.91791],[-76.29348,36.9197],[-76.29343,36.91985],[-76.28203,36.92086],[-76.28125,36.92145],[-76.27955,36.92185],[-76.27247,36.91699],[-76.27207,36.91847],[-76.27097,36.91835],[-76.26989,36.9193],[-76.26978,36.91996],[-76.27014,36.92135],[-76.26839,36.92753],[-76.266,36.93195],[-76.26178,36.93098],[-76.26013,36.92883],[-76.25874,36.92767],[-76.25546,36.92593],[-76.25317,36.92398],[-76.2524,36.92406],[-76.25364,36.93292],[-76.25611,36.9328],[-76.26029,36.93297],[-76.2623,36.93333],[-76.26449,36.93407],[-76.26043,36.9414],[-76.25886,36.9462],[-76.26008,36.94578],[-76.26088,36.94697],[-76.26251,36.94625],[-76.26375,36.94806],[-76.26601,36.94707],[-76.26924,36.95103],[-76.26914,36.95139],[-76.26441,36.95425],[-76.25963,36.959],[-76.25654,36.95807],[-76.25332,36.95601],[-76.24929,36.95239],[-76.24648,36.95022],[-76.24333,36.94926],[-76.23775,36.94541],[-76.23054,36.94146],[-76.23208,36.93949],[-76.23522,36.94112],[-76.2365,36.93963],[-76.23315,36.93792],[-76.2339,36.93696],[-76.23318,36.93434],[-76.2341,36.93309],[-76.23543,36.9323],[-76.23514,36.92874],[-76.23785,36.92898],[-76.24134,36.92962],[-76.24364,36.92941],[-76.24334,36.92744],[-76.23771,36.92803],[-76.23766,36.92752],[-76.23526,36.9274],[-76.23505,36.92639],[-76.23372,36.92513],[-76.2348,36.92465],[-76.23719,36.92441],[-76.23708,36.92371],[-76.23596,36.9238],[-76.23478,36.92332],[-76.23557,36.92112],[-76.23639,36.92064],[-76.23603,36.91848],[-76.23447,36.91863],[-76.23442,36.91934],[-76.23142,36.92388],[-76.23088,36.92413],[-76.2303,36.92384],[-76.23014,36.923],[-76.22911,36.9231],[-76.22799,36.9229],[-76.22817,36.92227],[-76.22383,36.92114],[-76.22205,36.92134],[-76.21952,36.92249],[-76.21862,36.92374],[-76.21564,36.92234],[-76.21524,36.92288],[-76.2147,36.92267],[-76.21429,36.92276],[-76.21333,36.92164],[-76.21148,36.92279],[-76.2103,36.92179],[-76.21457,36.9192],[-76.21628,36.91757],[-76.21639,36.91703],[-76.2139,36.91708],[-76.21175,36.91777],[-76.20665,36.91873],[-76.20442,36.91842],[-76.19913,36.91938],[-76.19912,36.91784],[-76.20098,36.91705],[-76.20236,36.91491],[-76.20409,36.91436],[-76.20924,36.91095],[-76.20754,36.90898],[-76.20844,36.90708],[-76.2114,36.90826],[-76.21213,36.9094],[-76.21416,36.90973],[-76.21457,36.91043],[-76.21467,36.91169],[-76.2166,36.91224],[-76.21705,36.91354],[-76.21777,36.91354],[-76.21832,36.90211],[-76.21925,36.90142],[-76.22026,36.90015],[-76.22022,36.89908],[-76.21763,36.89351],[-76.22004,36.88975],[-76.21401,36.88162],[-76.21133,36.88093],[-76.20648,36.88017],[-76.20423,36.87949],[-76.20429,36.87443],[-76.20846,36.87452],[-76.21077,36.87479],[-76.21119,36.86985],[-76.20952,36.87013],[-76.20672,36.86986],[-76.20612,36.86895],[-76.20425,36.86773],[-76.20113,36.86635],[-76.19764,36.86524],[-76.18915,36.86202],[-76.18844,36.86199],[-76.18788,36.86223],[-76.18617,36.86205],[-76.18528,36.86062],[-76.17707,36.85651],[-76.17814,36.85232],[-76.17889,36.85061],[-76.18011,36.84846],[-76.18108,36.84789],[-76.18271,36.84615],[-76.19687,36.84617],[-76.20483,36.84504],[-76.21013,36.84372]]],[[[-76.27066,36.83388],[-76.27019,36.83459],[-76.27008,36.83472],[-76.27066,36.83388]]],[[[-76.25748,36.82076],[-76.26042,36.82239],[-76.27471,36.82805],[-76.275,36.82766],[-76.27576,36.82823],[-76.27567,36.83102],[-76.27316,36.83099],[-76.27421,36.83612],[-76.26964,36.83611],[-76.26971,36.83529],[-76.27019,36.83459],[-76.27052,36.83418],[-76.27068,36.83386],[-76.27066,36.83388],[-76.27128,36.83296],[-76.2707,36.83283],[-76.27035,36.8331],[-76.26857,36.83534],[-76.266,36.83529],[-76.26508,36.83417],[-76.26501,36.83298],[-76.26401,36.83249],[-76.26362,36.83348],[-76.26389,36.83452],[-76.25984,36.83542],[-76.25722,36.83555],[-76.25725,36.83395],[-76.26083,36.83167],[-76.26033,36.83072],[-76.25913,36.83126],[-76.25945,36.82941],[-76.26098,36.82815],[-76.25997,36.82753],[-76.25931,36.82804],[-76.2583,36.82944],[-76.25691,36.82938],[-76.25692,36.82836],[-76.25732,36.82775],[-76.25556,36.82835],[-76.25563,36.83114],[-76.25397,36.83048],[-76.25326,36.83282],[-76.25493,36.83328],[-76.2549,36.83386],[-76.2543,36.83445],[-76.25382,36.8345],[-76.25346,36.83482],[-76.25191,36.83713],[-76.24861,36.83691],[-76.24431,36.83592],[-76.24506,36.834],[-76.24667,36.83173],[-76.25748,36.82076]]]]},"properties":{"Zone":"C","Locality":"Norfolk"}},{"type":"Feature","geometry":{"type":"MultiPolygon","coordinates":[[[[-76.26686,36.93141],[-76.26655,36.93218],[-76.26654,36.93218],[-76.26686,36.93141]]],[[[-76.30686,36.92532],[-76.30784,36.92551],[-76.30919,36.92635],[-76.30996,36.92652],[-76.31439,36.92627],[-76.31719,36.92558],[-76.31799,36.93276],[-76.30686,36.93301],[-76.30686,36.92532]]],[[[-76.25317,36.92398],[-76.25546,36.92593],[-76.25874,36.92767],[-76.26013,36.92883],[-76.26178,36.93098],[-76.2653,36.93165],[-76.26654,36.93218],[-76.27119,36.93417],[-76.27263,36.93715],[-76.27573,36.93984],[-76.27258,36.94504],[-76.27134,36.94471],[-76.26375,36.94806],[-76.26251,36.94625],[-76.26088,36.94697],[-76.26008,36.94578],[-76.25886,36.9462],[-76.26043,36.9414],[-76.26449,36.93407],[-76.2623,36.93333],[-76.26029,36.93297],[-76.25611,36.9328],[-76.25364,36.93292],[-76.2524,36.9249],[-76.2524,36.92406],[-76.25317,36.92398]]],[[[-76.27118,36.91829],[-76.27207,36.91847],[-76.27014,36.92135],[-76.26984,36.91945],[-76.2703,36.91877],[-76.27118,36.91829]]],[[[-76.1924,36.91819],[-76.19086,36.91857],[-76.18957,36.91864],[-76.1924,36.91819]]],[[[-76.19254,36.91816],[-76.19255,36.91817],[-76.1924,36.91819],[-76.19254,36.91816]]],[[[-76.2565,36.90453],[-76.25788,36.90509],[-76.2592,36.90533],[-76.26697,36.90527],[-76.26697,36.90806],[-76.26564,36.90949],[-76.2668,36.91006],[-76.26618,36.91152],[-76.26866,36.91239],[-76.26535,36.91558],[-76.26131,36.91074],[-76.25643,36.90698],[-76.2565,36.90453]]],[[[-76.27967,36.89781],[-76.28398,36.89927],[-76.28223,36.90282],[-76.28463,36.90337],[-76.28617,36.90349],[-76.28639,36.90382],[-76.28614,36.90524],[-76.28397,36.90488],[-76.28332,36.90655],[-76.28089,36.90594],[-76.27956,36.9092],[-76.27931,36.91162],[-76.28114,36.91161],[-76.281,36.91349],[-76.27362,36.91274],[-76.27354,36.91293],[-76.27335,36.91286],[-76.27372,36.91199],[-76.27118,36.91127],[-76.27617,36.89886],[-76.27657,36.89887],[-76.27623,36.8987],[-76.27638,36.89831],[-76.2793,36.89913],[-76.27967,36.89781]]],[[[-76.25104,36.89411],[-76.25721,36.89433],[-76.25681,36.89595],[-76.25563,36.89869],[-76.25649,36.90159],[-76.25199,36.90231],[-76.25043,36.90234],[-76.25039,36.89844],[-76.25079,36.89847],[-76.25086,36.89807],[-76.2502,36.89624],[-76.25042,36.89596],[-76.25104,36.89583],[-76.25104,36.89411]]],[[[-76.23333,36.87814],[-76.23371,36.88036],[-76.23611,36.88013],[-76.237,36.88543],[-76.23776,36.88515],[-76.23903,36.88406],[-76.24069,36.88309],[-76.24406,36.8859],[-76.2455,36.88783],[-76.24714,36.88736],[-76.24763,36.88995],[-76.24589,36.88993],[-76.24576,36.89135],[-76.23866,36.89091],[-76.23832,36.88901],[-76.23436,36.88339],[-76.23392,36.88161],[-76.22987,36.88246],[-76.22869,36.87893],[-76.23333,36.87814]]],[[[-76.19004,36.86247],[-76.20113,36.86635],[-76.20425,36.86773],[-76.20612,36.86895],[-76.20672,36.86986],[-76.20952,36.87013],[-76.21119,36.86985],[-76.21077,36.87479],[-76.20846,36.87452],[-76.20427,36.87443],[-76.20423,36.87949],[-76.20648,36.88017],[-76.21133,36.88093],[-76.21401,36.88162],[-76.22004,36.88975],[-76.21763,36.89351],[-76.22022,36.89908],[-76.22026,36.90015],[-76.21925,36.90142],[-76.21832,36.90211],[-76.21777,36.91354],[-76.21705,36.91354],[-76.2166,36.91224],[-76.21467,36.91169],[-76.21457,36.91043],[-76.21416,36.90973],[-76.21213,36.9094],[-76.2114,36.90826],[-76.20844,36.90708],[-76.20754,36.90898],[-76.20924,36.91095],[-76.20409,36.91436],[-76.20236,36.91491],[-76.20098,36.91705],[-76.19912,36.91784],[-76.19913,36.91938],[-76.20442,36.91842],[-76.20665,36.91873],[-76.21175,36.91777],[-76.2139,36.91708],[-76.21639,36.91703],[-76.21628,36.91757],[-76.21457,36.9192],[-76.2103,36.92179],[-76.21148,36.92279],[-76.21333,36.92164],[-76.21429,36.92276],[-76.2147,36.92267],[-76.21524,36.92288],[-76.21564,36.92234],[-76.21862,36.92374],[-76.21952,36.92249],[-76.22205,36.92134],[-76.22383,36.92114],[-76.22817,36.92227],[-76.22799,36.9229],[-76.22911,36.9231],[-76.23014,36.923],[-76.2303,36.92384],[-76.23088,36.92413],[-76.23142,36.92388],[-76.23442,36.91934],[-76.23447,36.91863],[-76.23603,36.91848],[-76.23639,36.92064],[-76.23557,36.92112],[-76.23478,36.92332],[-76.23596,36.9238],[-76.23708,36.92371],[-76.23719,36.92441],[-76.2348,36.92465],[-76.23372,36.92513],[-76.23505,36.92639],[-76.23526,36.9274],[-76.23766,36.92752],[-76.23771,36.92803],[-76.24334,36.92744],[-76.24364,36.92941],[-76.24134,36.92962],[-76.23785,36.92898],[-76.23514,36.92874],[-76.23543,36.9323],[-76.2341,36.93309],[-76.23318,36.93434],[-76.2339,36.93696],[-76.23315,36.93792],[-76.2365,36.93963],[-76.23522,36.94112],[-76.23208,36.93949],[-76.23054,36.94146],[-76.23775,36.94541],[-76.24333,36.94926],[-76.24648,36.95022],[-76.24929,36.95239],[-76.25332,36.95601],[-76.25654,36.95807],[-76.25952,36.95892],[-76.25839,36.9604],[-76.25055,36.95618],[-76.24399,36.95208],[-76.23778,36.94778],[-76.23164,36.94418],[-76.21783,36.93869],[-76.21026,36.93652],[-76.20096,36.93418],[-76.19268,36.93248],[-76.18465,36.93128],[-76.17955,36.93086],[-76.17944,36.93176],[-76.17842,36.93177],[-76.17852,36.92922],[-76.18498,36.92934],[-76.1992,36.93154],[-76.21349,36.9352],[-76.21904,36.93712],[-76.22012,36.93511],[-76.22465,36.93542],[-76.23073,36.93692],[-76.23154,36.93541],[-76.22587,36.93484],[-76.22464,36.93392],[-76.21902,36.9329],[-76.22155,36.93068],[-76.22421,36.93021],[-76.22515,36.92972],[-76.22657,36.92984],[-76.23027,36.92783],[-76.23457,36.92871],[-76.23481,36.92769],[-76.23383,36.92778],[-76.2311,36.92687],[-76.23307,36.92472],[-76.23253,36.92371],[-76.2318,36.92456],[-76.23074,36.92512],[-76.23076,36.92577],[-76.22962,36.92709],[-76.22302,36.92872],[-76.22426,36.92382],[-76.22248,36.92354],[-76.22161,36.92814],[-76.21835,36.92909],[-76.21829,36.93079],[-76.215,36.93085],[-76.21575,36.93003],[-76.21371,36.92999],[-76.21367,36.92892],[-76.21116,36.92876],[-76.21114,36.92782],[-76.21276,36.9277],[-76.21275,36.92743],[-76.21362,36.92718],[-76.21336,36.92698],[-76.21275,36.92722],[-76.21272,36.92524],[-76.2149,36.92355],[-76.21411,36.92307],[-76.21012,36.92601],[-76.20805,36.92532],[-76.20813,36.92275],[-76.20929,36.92277],[-76.20933,36.92143],[-76.21127,36.92022],[-76.20577,36.91982],[-76.20444,36.92044],[-76.20646,36.92288],[-76.20633,36.92557],[-76.20276,36.92533],[-76.20226,36.92576],[-76.20181,36.92583],[-76.20063,36.92552],[-76.19804,36.92333],[-76.19775,36.92206],[-76.198,36.92192],[-76.19772,36.92186],[-76.19922,36.92183],[-76.1992,36.9211],[-76.19777,36.92111],[-76.19778,36.91909],[-76.19714,36.91908],[-76.19711,36.92032],[-76.19461,36.92025],[-76.19487,36.91809],[-76.19259,36.91815],[-76.19254,36.91816],[-76.18993,36.91285],[-76.18528,36.90928],[-76.18359,36.90756],[-76.18216,36.90679],[-76.18317,36.90655],[-76.1918,36.89587],[-76.19875,36.88611],[-76.19293,36.87772],[-76.18835,36.87454],[-76.18796,36.874],[-76.18879,36.8736],[-76.18917,36.87373],[-76.18956,36.87356],[-76.19063,36.8725],[-76.19055,36.87054],[-76.19099,36.86984],[-76.19051,36.86913],[-76.19086,36.86859],[-76.19062,36.86786],[-76.19097,36.8674],[-76.19099,36.8667],[-76.19155,36.86653],[-76.19207,36.8659],[-76.19391,36.86463],[-76.19285,36.8637],[-76.19212,36.86371],[-76.19041,36.86295],[-76.19004,36.86247]]],[[[-76.18921,36.86218],[-76.18922,36.86218],[-76.18921,36.86218],[-76.18921,36.86218]]],[[[-76.2577,36.85522],[-76.25777,36.85651],[-76.25865,36.85644],[-76.25865,36.85756],[-76.25933,36.85979],[-76.25831,36.85991],[-76.256,36.85964],[-76.25354,36.86015],[-76.25259,36.8607],[-76.25424,36.86731],[-76.25623,36.867],[-76.25669,36.86885],[-76.25818,36.86969],[-76.25888,36.86862],[-76.2605,36.86706],[-76.26141,36.86749],[-76.26349,36.86795],[-76.263,36.86946],[-76.26644,36.87032],[-76.26023,36.88618],[-76.25903,36.88531],[-76.25268,36.8781],[-76.25227,36.87729],[-76.25217,36.87593],[-76.24949,36.87865],[-76.24195,36.87605],[-76.2399,36.87569],[-76.23856,36.87591],[-76.23651,36.87721],[-76.23333,36.87814],[-76.23254,36.87335],[-76.23433,36.87264],[-76.24523,36.87138],[-76.24429,36.87073],[-76.24985,36.86806],[-76.24416,36.86307],[-76.24755,36.86152],[-76.25529,36.85638],[-76.2577,36.85522]]],[[[-76.26767,36.845],[-76.27311,36.84822],[-76.27056,36.85099],[-76.27334,36.85111],[-76.2722,36.8539],[-76.27625,36.85517],[-76.2806,36.85028],[-76.2817,36.85115],[-76.28327,36.84873],[-76.28411,36.84814],[-76.28457,36.84837],[-76.28539,36.84706],[-76.28702,36.8476],[-76.29023,36.84779],[-76.29034,36.84801],[-76.28825,36.85214],[-76.28813,36.85297],[-76.28666,36.85596],[-76.28611,36.85654],[-76.28707,36.8586],[-76.2867,36.86057],[-76.29019,36.8615],[-76.29705,36.86489],[-76.29907,36.862],[-76.29976,36.86216],[-76.29982,36.86058],[-76.30116,36.85932],[-76.30289,36.85863],[-76.30584,36.86009],[-76.30623,36.86125],[-76.30521,36.86316],[-76.30444,36.8637],[-76.30301,36.86389],[-76.30219,36.86431],[-76.30064,36.86642],[-76.30547,36.86887],[-76.3063,36.86976],[-76.30658,36.87104],[-76.3052,36.87134],[-76.30307,36.87425],[-76.31018,36.87682],[-76.30995,36.8777],[-76.3103,36.88448],[-76.31256,36.8844],[-76.31286,36.88948],[-76.30799,36.8896],[-76.30795,36.89111],[-76.29919,36.89148],[-76.29969,36.89014],[-76.30028,36.88982],[-76.3017,36.88946],[-76.30297,36.88942],[-76.30239,36.88625],[-76.30008,36.88634],[-76.3002,36.8878],[-76.2951,36.88794],[-76.29475,36.88004],[-76.29275,36.88015],[-76.29121,36.88466],[-76.29144,36.88504],[-76.29101,36.88522],[-76.29009,36.8879],[-76.28826,36.88751],[-76.28786,36.8877],[-76.28761,36.88736],[-76.28577,36.88696],[-76.28669,36.88427],[-76.28645,36.88392],[-76.28687,36.88374],[-76.288,36.8804],[-76.28505,36.88055],[-76.28384,36.88335],[-76.28259,36.8832],[-76.28222,36.8851],[-76.28009,36.88546],[-76.27987,36.88604],[-76.27791,36.88523],[-76.27716,36.88416],[-76.27675,36.88272],[-76.28005,36.88122],[-76.28005,36.88104],[-76.27905,36.88108],[-76.27904,36.87736],[-76.28192,36.8771],[-76.28068,36.87164],[-76.2769,36.87227],[-76.2761,36.86979],[-76.27349,36.86816],[-76.27276,36.86891],[-76.27115,36.86791],[-76.27179,36.86721],[-76.26994,36.86662],[-76.26917,36.86787],[-76.26364,36.86607],[-76.26482,36.86356],[-76.26384,36.86321],[-76.26315,36.86447],[-76.26234,36.86418],[-76.26221,36.86016],[-76.26936,36.86117],[-76.27225,36.85615],[-76.26441,36.8538],[-76.26452,36.84727],[-76.26113,36.84724],[-76.26093,36.84741],[-76.2609,36.85052],[-76.25747,36.85052],[-76.25735,36.84877],[-76.25624,36.84772],[-76.25528,36.84748],[-76.25437,36.84757],[-76.25251,36.84877],[-76.25182,36.84886],[-76.25103,36.84818],[-76.25043,36.84842],[-76.24714,36.84571],[-76.24871,36.84552],[-76.25874,36.84571],[-76.26767,36.845]]],[[[-76.2852,36.86747],[-76.28364,36.87104],[-76.30189,36.87634],[-76.30166,36.87324],[-76.30052,36.87295],[-76.29928,36.87202],[-76.29635,36.87104],[-76.29187,36.86899],[-76.28862,36.86843],[-76.2852,36.86747]]],[[[-76.23445,36.84316],[-76.23928,36.84439],[-76.23872,36.84675],[-76.23499,36.84672],[-76.23962,36.85443],[-76.236,36.85512],[-76.23657,36.8568],[-76.23876,36.85988],[-76.2422,36.85866],[-76.24324,36.86047],[-76.24364,36.86215],[-76.24416,36.86307],[-76.2423,36.86372],[-76.23689,36.86626],[-76.23486,36.86674],[-76.23147,36.86702],[-76.2295,36.8678],[-76.22891,36.8667],[-76.22883,36.86548],[-76.22915,36.86446],[-76.22996,36.86348],[-76.22897,36.86233],[-76.2287,36.86076],[-76.22881,36.85796],[-76.23282,36.85787],[-76.23217,36.85547],[-76.23226,36.85242],[-76.23461,36.85244],[-76.23469,36.85099],[-76.23094,36.85093],[-76.2313,36.85019],[-76.23252,36.84963],[-76.2306,36.84847],[-76.22943,36.84687],[-76.22989,36.84664],[-76.22942,36.84615],[-76.23112,36.84355],[-76.2339,36.84472],[-76.23445,36.84316]]],[[[-76.20194,36.83451],[-76.20283,36.83493],[-76.2027,36.83578],[-76.20459,36.83671],[-76.20393,36.83745],[-76.20388,36.83863],[-76.21026,36.83872],[-76.21013,36.84372],[-76.20483,36.84504],[-76.19687,36.84617],[-76.18271,36.84615],[-76.18599,36.84265],[-76.18948,36.84103],[-76.19039,36.84029],[-76.19145,36.83927],[-76.19208,36.83806],[-76.19658,36.83812],[-76.19673,36.841],[-76.19794,36.84103],[-76.19804,36.84028],[-76.19986,36.8378],[-76.20026,36.838],[-76.20148,36.83608],[-76.20194,36.83451]]],[[[-76.28006,36.82332],[-76.28091,36.82444],[-76.2849,36.82768],[-76.28571,36.82862],[-76.28633,36.83019],[-76.28627,36.8329],[-76.28483,36.8331],[-76.27957,36.83155],[-76.27659,36.82843],[-76.27576,36.82823],[-76.275,36.82766],[-76.27696,36.8249],[-76.28006,36.82332]]]]},"properties":{"Zone":"B","Locality":"Norfolk"}},{"type":"Feature","geometry":{"type":"MultiPolygon","coordinates":[[[[-76.26441,36.95425],[-76.26407,36.95686],[-76.26491,36.95925],[-76.26587,36.96047],[-76.26688,36.96128],[-76.26961,36.96246],[-76.27507,36.96301],[-76.27848,36.96424],[-76.28291,36.96495],[-76.28495,36.96491],[-76.28686,36.96413],[-76.28814,36.96334],[-76.29133,36.96359],[-76.29319,36.96308],[-76.29418,36.96248],[-76.29664,36.96256],[-76.29857,36.96306],[-76.29956,36.96405],[-76.29991,36.96523],[-76.29945,36.96596],[-76.29791,36.96737],[-76.29754,36.96833],[-76.29766,36.96931],[-76.29721,36.96984],[-76.29473,36.97011],[-76.29246,36.96979],[-76.28996,36.96924],[-76.28467,36.96949],[-76.28109,36.96934],[-76.27511,36.96842],[-76.27088,36.96717],[-76.25839,36.9604],[-76.26441,36.95425]]],[[[-76.19487,36.91809],[-76.19461,36.92025],[-76.19711,36.92032],[-76.19714,36.91908],[-76.19778,36.91909],[-76.19777,36.92111],[-76.1992,36.9211],[-76.19922,36.92183],[-76.19772,36.92186],[-76.198,36.92192],[-76.19775,36.92206],[-76.19804,36.92333],[-76.20063,36.92552],[-76.20181,36.92583],[-76.20226,36.92576],[-76.20276,36.92533],[-76.20633,36.92557],[-76.20646,36.92288],[-76.20444,36.92044],[-76.20577,36.91982],[-76.2108,36.92008],[-76.21127,36.92022],[-76.20933,36.92143],[-76.20929,36.92277],[-76.20813,36.92275],[-76.20805,36.92532],[-76.21012,36.92601],[-76.21411,36.92307],[-76.2149,36.92355],[-76.21272,36.92524],[-76.21275,36.92722],[-76.21336,36.92698],[-76.21362,36.92718],[-76.21275,36.92743],[-76.21276,36.9277],[-76.21114,36.92782],[-76.21116,36.92876],[-76.21367,36.92892],[-76.21371,36.92999],[-76.21575,36.93003],[-76.215,36.93085],[-76.21829,36.93079],[-76.21835,36.92909],[-76.22161,36.92814],[-76.22248,36.92354],[-76.22426,36.92382],[-76.22302,36.92872],[-76.22962,36.92709],[-76.23076,36.92577],[-76.23074,36.92512],[-76.2318,36.92456],[-76.23253,36.92371],[-76.23307,36.92472],[-76.2311,36.92687],[-76.23383,36.92778],[-76.23481,36.92769],[-76.23457,36.92871],[-76.23027,36.92783],[-76.22657,36.92984],[-76.22515,36.92972],[-76.22421,36.93021],[-76.22155,36.93068],[-76.21902,36.9329],[-76.22464,36.93392],[-76.22587,36.93484],[-76.23154,36.93541],[-76.23073,36.93692],[-76.22465,36.93542],[-76.22012,36.93511],[-76.21904,36.93712],[-76.21549,36.93577],[-76.21289,36.93503],[-76.1992,36.93154],[-76.19341,36.93056],[-76.19238,36.93004],[-76.19154,36.92923],[-76.19102,36.92793],[-76.19122,36.92662],[-76.19002,36.92584],[-76.18295,36.92412],[-76.18213,36.92402],[-76.18181,36.92424],[-76.17972,36.92405],[-76.17856,36.92286],[-76.17848,36.92249],[-76.17961,36.9219],[-76.18077,36.92169],[-76.18759,36.92288],[-76.18949,36.91865],[-76.19046,36.91864],[-76.19259,36.91815],[-76.19487,36.91809]]],[[[-76.27068,36.83386],[-76.27052,36.83418],[-76.27019,36.83459],[-76.27066,36.83388],[-76.27068,36.83386]]],[[[-76.28986,36.82173],[-76.28982,36.82302],[-76.29318,36.83014],[-76.29463,36.83523],[-76.29365,36.84173],[-76.30074,36.85102],[-76.3215,36.86381],[-76.33027,36.86874],[-76.33615,36.87486],[-76.32814,36.89322],[-76.33734,36.89968],[-76.34012,36.91872],[-76.32056,36.92104],[-76.31992,36.91687],[-76.31035,36.91791],[-76.30806,36.91579],[-76.3074,36.91607],[-76.30242,36.9158],[-76.29647,36.91609],[-76.2964,36.91533],[-76.28829,36.9153],[-76.28826,36.91409],[-76.281,36.91349],[-76.28114,36.91161],[-76.27931,36.91162],[-76.27956,36.9092],[-76.28089,36.90594],[-76.28332,36.90655],[-76.28397,36.90488],[-76.28614,36.90524],[-76.28639,36.90382],[-76.28603,36.90344],[-76.28463,36.90337],[-76.28223,36.90282],[-76.28398,36.89927],[-76.27985,36.89781],[-76.27967,36.89781],[-76.2793,36.89913],[-76.27638,36.89831],[-76.27623,36.8987],[-76.27657,36.89887],[-76.27617,36.89886],[-76.27118,36.91127],[-76.26767,36.9103],[-76.26697,36.91187],[-76.26618,36.91152],[-76.2668,36.91006],[-76.26564,36.90949],[-76.26697,36.90806],[-76.26697,36.90527],[-76.2592,36.90533],[-76.25788,36.90509],[-76.2565,36.90453],[-76.25649,36.90159],[-76.25563,36.89869],[-76.25681,36.89595],[-76.25721,36.89433],[-76.25104,36.89411],[-76.25104,36.89583],[-76.25042,36.89596],[-76.2502,36.89624],[-76.25084,36.89794],[-76.25079,36.89847],[-76.24964,36.89843],[-76.24781,36.89893],[-76.24643,36.89517],[-76.24519,36.89372],[-76.24412,36.89397],[-76.24381,36.89454],[-76.23983,36.89518],[-76.23913,36.89407],[-76.23866,36.89091],[-76.24576,36.89135],[-76.24589,36.88993],[-76.24763,36.88995],[-76.24722,36.88757],[-76.24714,36.88736],[-76.2455,36.88783],[-76.24436,36.88619],[-76.24069,36.88309],[-76.23903,36.88406],[-76.23776,36.88515],[-76.237,36.88543],[-76.23611,36.88013],[-76.23371,36.88036],[-76.23333,36.87814],[-76.23651,36.87721],[-76.23856,36.87591],[-76.2399,36.87569],[-76.24195,36.87605],[-76.24949,36.87865],[-76.25217,36.87593],[-76.25227,36.87729],[-76.25268,36.8781],[-76.25903,36.88531],[-76.26023,36.88618],[-76.26644,36.87032],[-76.263,36.86946],[-76.26349,36.86795],[-76.26141,36.86749],[-76.2605,36.86706],[-76.25888,36.86862],[-76.25818,36.86969],[-76.25669,36.86885],[-76.25623,36.867],[-76.25424,36.86731],[-76.25259,36.8607],[-76.25354,36.86015],[-76.25608,36.85964],[-76.25831,36.85991],[-76.25884,36.85972],[-76.26221,36.86016],[-76.26234,36.86418],[-76.26315,36.86447],[-76.26384,36.86321],[-76.26482,36.86356],[-76.26364,36.86607],[-76.2692,36.86787],[-76.26993,36.86663],[-76.27179,36.86721],[-76.27115,36.86791],[-76.27276,36.86891],[-76.27349,36.86816],[-76.27613,36.86982],[-76.2769,36.87227],[-76.28068,36.87164],[-76.28152,36.87476],[-76.28183,36.8771],[-76.27904,36.87736],[-76.27905,36.88108],[-76.28005,36.88104],[-76.28005,36.88122],[-76.27675,36.88272],[-76.27721,36.88427],[-76.27794,36.88526],[-76.27863,36.88561],[-76.2799,36.88604],[-76.28009,36.88546],[-76.28222,36.8851],[-76.28259,36.8832],[-76.28384,36.88335],[-76.28505,36.88055],[-76.288,36.8804],[-76.28687,36.88374],[-76.28645,36.88392],[-76.28669,36.88427],[-76.28577,36.88696],[-76.28761,36.88736],[-76.28786,36.8877],[-76.28826,36.88751],[-76.29009,36.8879],[-76.29101,36.88522],[-76.29144,36.88504],[-76.29121,36.88466],[-76.29275,36.88015],[-76.29475,36.88004],[-76.2951,36.88794],[-76.3002,36.8878],[-76.30008,36.88634],[-76.30239,36.88625],[-76.30297,36.88942],[-76.3017,36.88946],[-76.30028,36.88982],[-76.29969,36.89014],[-76.29919,36.89148],[-76.30795,36.89111],[-76.30799,36.8896],[-76.31286,36.88948],[-76.31256,36.8844],[-76.3103,36.88448],[-76.30995,36.8777],[-76.31018,36.87682],[-76.30307,36.87425],[-76.3052,36.87134],[-76.30658,36.87104],[-76.3063,36.86976],[-76.30547,36.86887],[-76.30064,36.86642],[-76.30219,36.86431],[-76.30301,36.86389],[-76.30444,36.8637],[-76.30517,36.86321],[-76.30623,36.86125],[-76.30593,36.86019],[-76.30289,36.85863],[-76.30133,36.85923],[-76.29982,36.86058],[-76.29976,36.86216],[-76.29907,36.862],[-76.29705,36.86489],[-76.29019,36.8615],[-76.2867,36.86057],[-76.28707,36.8586],[-76.28611,36.85654],[-76.28666,36.85596],[-76.28813,36.85297],[-76.28825,36.85214],[-76.29034,36.84801],[-76.29023,36.84779],[-76.28702,36.8476],[-76.28539,36.84706],[-76.28457,36.84837],[-76.28411,36.84814],[-76.28327,36.84873],[-76.2817,36.85115],[-76.2806,36.85028],[-76.27625,36.85517],[-76.2722,36.8539],[-76.27334,36.85111],[-76.27056,36.85099],[-76.27311,36.84822],[-76.26772,36.845],[-76.25874,36.84571],[-76.24871,36.84552],[-76.24714,36.84567],[-76.25043,36.84842],[-76.24952,36.84892],[-76.2487,36.84978],[-76.24569,36.84708],[-76.24419,36.84804],[-76.24153,36.84799],[-76.24181,36.84592],[-76.24048,36.84588],[-76.24,36.8479],[-76.2362,36.84778],[-76.23568,36.84792],[-76.23499,36.84672],[-76.23872,36.84675],[-76.23928,36.84439],[-76.23445,36.84316],[-76.2339,36.84472],[-76.23112,36.84355],[-76.22942,36.84615],[-76.22989,36.84664],[-76.22943,36.84687],[-76.2306,36.84847],[-76.23252,36.84963],[-76.2313,36.85019],[-76.23094,36.85093],[-76.23469,36.85099],[-76.23461,36.85244],[-76.23226,36.85242],[-76.23217,36.85547],[-76.23282,36.85787],[-76.22881,36.85796],[-76.2287,36.86076],[-76.22897,36.86233],[-76.22996,36.86348],[-76.22906,36.86475],[-76.2272,36.86425],[-76.22462,36.86398],[-76.22218,36.86632],[-76.22095,36.86676],[-76.22088,36.86621],[-76.22148,36.86601],[-76.22227,36.86534],[-76.22269,36.8633],[-76.22344,36.86236],[-76.22294,36.86216],[-76.2249,36.86052],[-76.22256,36.85804],[-76.22558,36.8581],[-76.2259,36.85482],[-76.22233,36.85475],[-76.22463,36.85134],[-76.22296,36.85059],[-76.221,36.85308],[-76.21956,36.85435],[-76.21916,36.8551],[-76.21909,36.85601],[-76.21717,36.85595],[-76.21716,36.85071],[-76.2159,36.85075],[-76.21488,36.85037],[-76.2143,36.84979],[-76.21373,36.84857],[-76.21182,36.84902],[-76.20996,36.8489],[-76.21026,36.83872],[-76.20388,36.83863],[-76.20393,36.83745],[-76.20459,36.83671],[-76.2027,36.83578],[-76.20283,36.83493],[-76.20194,36.83451],[-76.20148,36.83608],[-76.20026,36.838],[-76.19986,36.8378],[-76.19804,36.84028],[-76.19794,36.84103],[-76.19673,36.841],[-76.19658,36.83812],[-76.19208,36.83806],[-76.19495,36.83319],[-76.19462,36.82989],[-76.19605,36.82969],[-76.19801,36.82837],[-76.19876,36.82802],[-76.19981,36.82794],[-76.20032,36.82816],[-76.20173,36.82985],[-76.20451,36.83138],[-76.20516,36.83144],[-76.20561,36.83198],[-76.20689,36.83269],[-76.21058,36.833],[-76.21397,36.83241],[-76.21718,36.83354],[-76.21882,36.83529],[-76.22337,36.83802],[-76.22604,36.83997],[-76.24383,36.83692],[-76.24434,36.83585],[-76.24584,36.83639],[-76.24861,36.83691],[-76.25191,36.83713],[-76.25346,36.83482],[-76.25382,36.8345],[-76.2543,36.83445],[-76.2549,36.83386],[-76.25493,36.83328],[-76.25326,36.83282],[-76.25397,36.83048],[-76.25563,36.83114],[-76.25556,36.82835],[-76.25732,36.82775],[-76.25692,36.82836],[-76.25691,36.82938],[-76.2583,36.82944],[-76.25931,36.82804],[-76.25997,36.82753],[-76.26098,36.82815],[-76.25945,36.82941],[-76.25913,36.83126],[-76.26033,36.83072],[-76.26083,36.83167],[-76.25725,36.83395],[-76.25722,36.83555],[-76.25984,36.83542],[-76.26389,36.83452],[-76.26362,36.83348],[-76.26401,36.83249],[-76.26501,36.83298],[-76.26508,36.83417],[-76.266,36.83529],[-76.26857,36.83534],[-76.27035,36.8331],[-76.2707,36.83283],[-76.27128,36.83296],[-76.27066,36.83388],[-76.27008,36.83472],[-76.27019,36.83459],[-76.26971,36.83529],[-76.26964,36.83611],[-76.27421,36.83612],[-76.27316,36.83099],[-76.27567,36.83102],[-76.27576,36.82823],[-76.27661,36.82845],[-76.27957,36.83155],[-76.28483,36.8331],[-76.28627,36.8329],[-76.28633,36.83019],[-76.28571,36.82862],[-76.2849,36.82768],[-76.28091,36.82444],[-76.28006,36.82332],[-76.28376,36.82266],[-76.28728,36.82233],[-76.28986,36.82173]]]]},"properties":{"Zone":"A","Locality":"Norfolk"}},{"type":"Feature","geometry":{"type":"Polygon","coordinates":[[[-76.26441,36.95425],[-76.26786,36.95212],[-76.26961,36.95309],[-76.27007,36.95302],[-76.2708,36.95379],[-76.27183,36.95409],[-76.27202,36.95463],[-76.27285,36.95548],[-76.2727,36.9618],[-76.27232,36.96261],[-76.27507,36.96301],[-76.26961,36.96246],[-76.26776,36.96179],[-76.26624,36.9608],[-76.26498,36.95935],[-76.26425,36.95781],[-76.26405,36.9562],[-76.26441,36.95425]]]},"properties":{"Zone":"A-N","Locality":"Norfolk"}},{"type":"Feature","geometry":{"type":"Polygon","coordinates":[[[-76.31532,36.95645],[-76.2997,36.95681],[-76.29936,36.9507],[-76.29042,36.94779],[-76.27525,36.95201],[-76.27361,36.95392],[-76.27183,36.95409],[-76.2708,36.95379],[-76.27007,36.95302],[-76.26961,36.95309],[-76.26786,36.95212],[-76.26914,36.95139],[-76.26924,36.95103],[-76.26601,36.94707],[-76.27134,36.94471],[-76.27258,36.94504],[-76.27573,36.93984],[-76.27263,36.93715],[-76.27119,36.93417],[-76.26655,36.93218],[-76.2684,36.92845],[-76.26998,36.92401],[-76.27014,36.92135],[-76.27187,36.91898],[-76.27247,36.91699],[-76.27955,36.92185],[-76.28125,36.92145],[-76.28203,36.92086],[-76.29343,36.91985],[-76.29348,36.9197],[-76.31992,36.91687],[-76.32056,36.92104],[-76.32438,36.92064],[-76.32459,36.92195],[-76.31618,36.92353],[-76.31719,36.92558],[-76.31439,36.92627],[-76.30996,36.92652],[-76.30919,36.92635],[-76.30784,36.92551],[-76.30686,36.92532],[-76.30686,36.93301],[-76.31842,36.93274],[-76.31839,36.93361],[-76.32475,36.93313],[-76.33485,36.93281],[-76.33622,36.94912],[-76.3309,36.96498],[-76.3203,36.96321],[-76.31958,36.95822],[-76.31532,36.95645]]]},"properties":{"Zone":"B-N","Locality":"Norfolk"}},{"type":"Feature","geometry":{"type":"Polygon","coordinates":[[[-76.266,36.93195],[-76.26839,36.92753],[-76.27014,36.92135],[-76.26998,36.92401],[-76.26866,36.92781],[-76.26654,36.93218],[-76.266,36.93195]]]},"properties":{"Zone":"C-N","Locality":"Norfolk"}},{"type":"Feature","geometry":{"type":"MultiPolygon","coordinates":[[[[-76.17963,36.92767],[-76.17995,36.92685],[-76.17965,36.92573],[-76.17972,36.92405],[-76.18027,36.92407],[-76.18081,36.92632],[-76.18064,36.92763],[-76.17963,36.92767]]],[[[-76.17814,36.92772],[-76.17847,36.92764],[-76.17892,36.92902],[-76.17945,36.92904],[-76.17945,36.92923],[-76.17852,36.92922],[-76.17814,36.92772]]]]},"properties":{"Zone":"C-N","Locality":"Norfolk"}}]}